[{"OBJECT_NAME":"QIANFAN-46","OBJECT_ID":"2024-232L","EPOCH":"2026-03-09T21:51:08.064864","MEAN_MOTION":13.51004002,"ECCENTRICITY":0.00130206,"INCLINATION":89.0066,"RA_OF_ASC_NODE":32.4916,"ARG_OF_PERICENTER":313.8853,"MEAN_ANOMALY":46.1222,"EPHEMERIS_TYPE":0,"CLASSIFICATION_TYPE":"U","NORAD_CAT_ID":62247,"ELEMENT_SET_NO":999,"REV_AT_EPOCH":11098,"BSTAR":0.00013832903,"MEAN_MOTION_DOT":1.01e-6,"MEAN_MOTION_DDOT":0},{"OBJECT_NAME":"H-1 R\/B","OBJECT_ID":"1990-013D","EPOCH":"2026-03-09T20:41:38.221152","MEAN_MOTION":13.03738736,"ECCENTRICITY":0.04684854,"INCLINATION":99.0549,"RA_OF_ASC_NODE":24.8453,"ARG_OF_PERICENTER":30.6555,"MEAN_ANOMALY":332.1059,"EPHEMERIS_TYPE":0,"CLASSIFICATION_TYPE":"U","NORAD_CAT_ID":20491,"ELEMENT_SET_NO":999,"REV_AT_EPOCH":71608,"BSTAR":0.0016160084,"MEAN_MOTION_DOT":8.33e-6,"MEAN_MOTION_DDOT":0}]
